[{"OBJECT_NAME":"IRIDIUM 33 DEB","OBJECT_ID":"1997-051LJ","EPOCH":"2026-03-07T07:37:41.669760","MEAN_MOTION":14.40747083,"ECCENTRICITY":0.0014713,"INCLINATION":86.3443,"RA_OF_ASC_NODE":356.4679,"ARG_OF_PERICENTER":306.0474,"MEAN_ANOMALY":179.9545,"EPHEMERIS_TYPE":0,"CLASSIFICATION_TYPE":"U","NORAD_CAT_ID":34765,"ELEMENT_SET_NO":999,"REV_AT_EPOCH":88831,"BSTAR":0.00060915,"MEAN_MOTION_DOT":1.968e-5,"MEAN_MOTION_DDOT":0},{"OBJECT_NAME":"IRIDIUM 33 DEB","OBJECT_ID":"1997-051MH","EPOCH":"2026-03-07T06:57:06.302592","MEAN_MOTION":14.53026903,"ECCENTRICITY":0.0019436,"INCLINATION":86.3971,"RA_OF_ASC_NODE":14.5306,"ARG_OF_PERICENTER":165.6736,"MEAN_ANOMALY":353.568,"EPHEMERIS_TYPE":0,"CLASSIFICATION_TYPE":"U","NORAD_CAT_ID":34833,"ELEMENT_SET_NO":999,"REV_AT_EPOCH":88942,"BSTAR":0.0011573,"MEAN_MOTION_DOT":4.808e-5,"MEAN_MOTION_DDOT":0},{"OBJECT_NAME":"IRIDIUM 33 DEB","OBJECT_ID":"1997-051MQ","EPOCH":"2026-03-07T13:09:03.496032","MEAN_MOTION":14.78386839,"ECCENTRICITY":0.00146607,"INCLINATION":86.3051,"RA_OF_ASC_NODE":275.1773,"ARG_OF_PERICENTER":257.1267,"MEAN_ANOMALY":132.6404,"EPHEMERIS_TYPE":0,"CLASSIFICATION_TYPE":"U","NORAD_CAT_ID":34870,"ELEMENT_SET_NO":999,"REV_AT_EPOCH":90163,"BSTAR":0.0016337866,"MEAN_MOTION_DOT":0.00011947,"MEAN_MOTION_DDOT":0},{"OBJECT_NAME":"IRIDIUM 33 DEB","OBJECT_ID":"1997-051MY","EPOCH":"2026-03-07T09:25:22.130400","MEAN_MOTION":14.67263464,"ECCENTRICITY":0.0023981,"INCLINATION":86.3253,"RA_OF_ASC_NODE":288.6979,"ARG_OF_PERICENTER":290.7986,"MEAN_ANOMALY":190.0924,"EPHEMERIS_TYPE":0,"CLASSIFICATION_TYPE":"U","NORAD_CAT_ID":34896,"ELEMENT_SET_NO":999,"REV_AT_EPOCH":88860,"BSTAR":0.00098969224,"MEAN_MOTION_DOT":5.623e-5,"MEAN_MOTION_DDOT":0},{"OBJECT_NAME":"IRIDIUM 33 DEB","OBJECT_ID":"1997-051NF","EPOCH":"2026-03-06T10:35:01.548096","MEAN_MOTION":14.58903834,"ECCENTRICITY":0.00798906,"INCLINATION":86.1324,"RA_OF_ASC_NODE":329.332,"ARG_OF_PERICENTER":11.6389,"MEAN_ANOMALY":42.1013,"EPHEMERIS_TYPE":0,"CLASSIFICATION_TYPE":"U","NORAD_CAT_ID":34926,"ELEMENT_SET_NO":999,"REV_AT_EPOCH":87675,"BSTAR":0.0052058131,"MEAN_MOTION_DOT":0.00025579,"MEAN_MOTION_DDOT":0},{"OBJECT_NAME":"IRIDIUM 33 DEB","OBJECT_ID":"1997-051NR","EPOCH":"2026-03-07T14:44:26.053152","MEAN_MOTION":14.42459231,"ECCENTRICITY":0.00196738,"INCLINATION":86.3735,"RA_OF_ASC_NODE":20.6491,"ARG_OF_PERICENTER":310.2473,"MEAN_ANOMALY":176.2342,"EPHEMERIS_TYPE":0,"CLASSIFICATION_TYPE":"U","NORAD_CAT_ID":34985,"ELEMENT_SET_NO":999,"REV_AT_EPOCH":88398,"BSTAR":0.0010978151,"MEAN_MOTION_DOT":3.661e-5,"MEAN_MOTION_DDOT":0},{"OBJECT_NAME":"IRIDIUM 33 DEB","OBJECT_ID":"1997-051NX","EPOCH":"2026-03-03T04:42:35.498880","MEAN_MOTION":14.48072669,"ECCENTRICITY":0.0007886,"INCLINATION":86.3285,"RA_OF_ASC_NODE":333.7982,"ARG_OF_PERICENTER":165.3511,"MEAN_ANOMALY":194.7923,"EPHEMERIS_TYPE":0,"CLASSIFICATION_TYPE":"U","NORAD_CAT_ID":35051,"ELEMENT_SET_NO":999,"REV_AT_EPOCH":88160,"BSTAR":0.00071393968,"MEAN_MOTION_DOT":2.674e-5,"MEAN_MOTION_DDOT":0},{"OBJECT_NAME":"IRIDIUM 33 DEB","OBJECT_ID":"1997-051NY","EPOCH":"2026-03-07T12:16:51.198816","MEAN_MOTION":14.38625085,"ECCENTRICITY":0.00120085,"INCLINATION":86.3361,"RA_OF_ASC_NODE":344.1464,"ARG_OF_PERICENTER":154.8222,"MEAN_ANOMALY":205.3564,"EPHEMERIS_TYPE":0,"CLASSIFICATION_TYPE":"U","NORAD_CAT_ID":35052,"ELEMENT_SET_NO":999,"REV_AT_EPOCH":88494,"BSTAR":0.00026963007,"MEAN_MOTION_DOT":8.46e-6,"MEAN_MOTION_DDOT":0},{"OBJECT_NAME":"IRIDIUM 33 DEB","OBJECT_ID":"1997-051PF","EPOCH":"2026-03-07T07:24:59.582016","MEAN_MOTION":15.03621876,"ECCENTRICITY":0.0029651,"INCLINATION":86.2075,"RA_OF_ASC_NODE":11.4998,"ARG_OF_PERICENTER":224.1759,"MEAN_ANOMALY":135.7107,"EPHEMERIS_TYPE":0,"CLASSIFICATION_TYPE":"U","NORAD_CAT_ID":35080,"ELEMENT_SET_NO":999,"REV_AT_EPOCH":70950,"BSTAR":0.012903,"MEAN_MOTION_DOT":0.00182372,"MEAN_MOTION_DDOT":0},{"OBJECT_NAME":"IRIDIUM 33 DEB","OBJECT_ID":"1997-051PM","EPOCH":"2026-03-06T15:29:34.941984","MEAN_MOTION":14.45598133,"ECCENTRICITY":0.00136296,"INCLINATION":86.3888,"RA_OF_ASC_NODE":26.9221,"ARG_OF_PERICENTER":220.9183,"MEAN_ANOMALY":139.0997,"EPHEMERIS_TYPE":0,"CLASSIFICATION_TYPE":"U","NORAD_CAT_ID":35297,"ELEMENT_SET_NO":999,"REV_AT_EPOCH":71638,"BSTAR":0.00091060289,"MEAN_MOTION_DOT":3.238e-5,"MEAN_MOTION_DDOT":0},{"OBJECT_NAME":"IRIDIUM 33 DEB","OBJECT_ID":"1997-051PP","EPOCH":"2026-03-07T06:37:37.467840","MEAN_MOTION":14.41655717,"ECCENTRICITY":0.0054015,"INCLINATION":86.2921,"RA_OF_ASC_NODE":356.3673,"ARG_OF_PERICENTER":181.162,"MEAN_ANOMALY":331.5584,"EPHEMERIS_TYPE":0,"CLASSIFICATION_TYPE":"U","NORAD_CAT_ID":35299,"ELEMENT_SET_NO":999,"REV_AT_EPOCH":87548,"BSTAR":0.0016135,"MEAN_MOTION_DOT":5.367e-5,"MEAN_MOTION_DDOT":0},{"OBJECT_NAME":"IRIDIUM 33 DEB","OBJECT_ID":"1997-051QA","EPOCH":"2026-03-05T01:26:44.036160","MEAN_MOTION":14.50261027,"ECCENTRICITY":0.00128222,"INCLINATION":86.3617,"RA_OF_ASC_NODE":349.2201,"ARG_OF_PERICENTER":180.2098,"MEAN_ANOMALY":179.9103,"EPHEMERIS_TYPE":0,"CLASSIFICATION_TYPE":"U","NORAD_CAT_ID":35480,"ELEMENT_SET_NO":999,"REV_AT_EPOCH":88224,"BSTAR":0.00079406931,"MEAN_MOTION_DOT":3.114e-5,"MEAN_MOTION_DDOT":0},{"OBJECT_NAME":"IRIDIUM 33 DEB","OBJECT_ID":"1997-051QE","EPOCH":"2026-03-07T09:35:18.798432","MEAN_MOTION":15.07266806,"ECCENTRICITY":0.00134228,"INCLINATION":86.3519,"RA_OF_ASC_NODE":312.8742,"ARG_OF_PERICENTER":171.2899,"MEAN_ANOMALY":188.8573,"EPHEMERIS_TYPE":0,"CLASSIFICATION_TYPE":"U","NORAD_CAT_ID":35484,"ELEMENT_SET_NO":999,"REV_AT_EPOCH":63287,"BSTAR":0.0040001376,"MEAN_MOTION_DOT":0.00060878,"MEAN_MOTION_DDOT":0},{"OBJECT_NAME":"IRIDIUM 33 DEB","OBJECT_ID":"1997-051QJ","EPOCH":"2026-03-06T19:40:56.137152","MEAN_MOTION":14.85267719,"ECCENTRICITY":0.00274936,"INCLINATION":86.3191,"RA_OF_ASC_NODE":262.0359,"ARG_OF_PERICENTER":100.5701,"MEAN_ANOMALY":259.8622,"EPHEMERIS_TYPE":0,"CLASSIFICATION_TYPE":"U","NORAD_CAT_ID":35488,"ELEMENT_SET_NO":999,"REV_AT_EPOCH":89513,"BSTAR":0.0016794328,"MEAN_MOTION_DOT":0.00014552,"MEAN_MOTION_DDOT":0},{"OBJECT_NAME":"IRIDIUM 33 DEB","OBJECT_ID":"1997-051QN","EPOCH":"2026-03-06T02:30:07.948224","MEAN_MOTION":14.8464637,"ECCENTRICITY":0.00066413,"INCLINATION":86.3525,"RA_OF_ASC_NODE":307.6388,"ARG_OF_PERICENTER":247.1462,"MEAN_ANOMALY":112.9061,"EPHEMERIS_TYPE":0,"CLASSIFICATION_TYPE":"U","NORAD_CAT_ID":35616,"ELEMENT_SET_NO":999,"REV_AT_EPOCH":88810,"BSTAR":0.0014121085,"MEAN_MOTION_DOT":0.00011975,"MEAN_MOTION_DDOT":0},{"OBJECT_NAME":"IRIDIUM 33 DEB","OBJECT_ID":"1997-051QQ","EPOCH":"2026-03-04T11:11:49.822368","MEAN_MOTION":14.52714174,"ECCENTRICITY":0.00305475,"INCLINATION":86.3417,"RA_OF_ASC_NODE":317.7694,"ARG_OF_PERICENTER":101.7612,"MEAN_ANOMALY":258.7023,"EPHEMERIS_TYPE":0,"CLASSIFICATION_TYPE":"U","NORAD_CAT_ID":35618,"ELEMENT_SET_NO":999,"REV_AT_EPOCH":66580,"BSTAR":0.00054634879,"MEAN_MOTION_DOT":2.274e-5,"MEAN_MOTION_DDOT":0}]
