IRIDIUM 33 DEB          
1 34765U 97051LJ  26066.31784340  .00001968  00000+0  60915-3 0  9994
2 34765  86.3443 356.4679 0014713 306.0474 179.9545 14.40747083888311
IRIDIUM 33 DEB          
1 34833U 97051MH  26066.28965628  .00004808  00000+0  11573-2 0  9997
2 34833  86.3971  14.5306 0019436 165.6736 353.5680 14.53026903889427
IRIDIUM 33 DEB          
1 34870U 97051MQ  26066.54795713  .00011947  00000+0  16338-2 0  9999
2 34870  86.3051 275.1773 0014660 257.1267 132.6404 14.78386839901632
IRIDIUM 33 DEB          
1 34896U 97051MY  26066.39261725  .00005623  00000+0  98969-3 0  9996
2 34896  86.3253 288.6979 0023981 290.7986 190.0924 14.67263464888600
IRIDIUM 33 DEB          
1 34926U 97051NF  26065.44099014  .00025579  00000+0  52058-2 0  9995
2 34926  86.1324 329.3320 0079890  11.6389  42.1013 14.58903834876752
IRIDIUM 33 DEB          
1 34985U 97051NR  26066.61419043  .00003661  00000+0  10978-2 0  9991
2 34985  86.3735  20.6491 0019673 310.2473 176.2342 14.42459231883987
IRIDIUM 33 DEB          
1 35051U 97051NX  26062.19624420  .00002674  00000+0  71394-3 0  9995
2 35051  86.3285 333.7982 0007886 165.3511 194.7923 14.48072669881609
IRIDIUM 33 DEB          
1 35052U 97051NY  26066.51170369  .00000846  00000+0  26963-3 0  9995
2 35052  86.3361 344.1464 0012008 154.8222 205.3564 14.38625085884945
IRIDIUM 33 DEB          
1 35080U 97051PF  26066.30902294  .00182372  00000+0  12903-1 0  9995
2 35080  86.2075  11.4998 0029651 224.1759 135.7107 15.03621876709505
IRIDIUM 33 DEB          
1 35297U 97051PM  26065.64554331  .00003238  00000+0  91060-3 0  9992
2 35297  86.3888  26.9221 0013629 220.9183 139.0997 14.45598133716383
IRIDIUM 33 DEB          
1 35299U 97051PP  26066.27612810  .00005367  00000+0  16135-2 0  9995
2 35299  86.2921 356.3673 0054015 181.1620 331.5584 14.41655717875487
IRIDIUM 33 DEB          
1 35480U 97051QA  26064.06023190  .00003114  00000+0  79407-3 0  9999
2 35480  86.3617 349.2201 0012822 180.2098 179.9103 14.50261027882249
IRIDIUM 33 DEB          
1 35484U 97051QE  26066.39952313  .00060878  00000+0  40001-2 0  9996
2 35484  86.3519 312.8742 0013422 171.2899 188.8573 15.07266806632871
IRIDIUM 33 DEB          
1 35488U 97051QJ  26065.82009418  .00014552  00000+0  16794-2 0  9996
2 35488  86.3191 262.0359 0027493 100.5701 259.8622 14.85267719895134
IRIDIUM 33 DEB          
1 35616U 97051QN  26065.10425866  .00011975  00000+0  14121-2 0  9997
2 35616  86.3525 307.6388 0006641 247.1462 112.9061 14.84646370888108
IRIDIUM 33 DEB          
1 35618U 97051QQ  26063.46654887  .00002274  00000+0  54635-3 0  9990
2 35618  86.3417 317.7694 0030547 101.7612 258.7023 14.52714174665806
